{"type": "FeatureCollection", "features": [ {"type": "Feature", "properties": {"norad_id": 39019, "name": "PLEIADES 1B", "group": "resource", "lat": -81.77080720207962, "lon": 149.54355350058805, "alt_km": 705.9983225570895, "timestamp": "2025-12-18T23:35:48.704093+00:00", "meta": {"OBJECT_NAME": "PLEIADES 1B", "OBJECT_ID": "2012-068A", "EPOCH": "2025-12-18T15:46:22.678752", "MEAN_MOTION": 14.5855828, "ECCENTRICITY": 0.00011658, "INCLINATION": 98.1795, "RA_OF_ASC_NODE": 65.2158, "ARG_OF_PERICENTER": 84.5848, "MEAN_ANOMALY": 275.5485, "EPHEMERIS_TYPE": 0, "CLASSIFICATION_TYPE": "U", "NORAD_CAT_ID": 39019, "ELEMENT_SET_NO": 999, "REV_AT_EPOCH": 69453, "BSTAR": 7.1954767e-05, "MEAN_MOTION_DOT": 2.89e-06, "MEAN_MOTION_DDOT": 0}, "tle": {"line1": "1 39019U 12068A   25352.65720693  .00000289  00000+0  71955-4 0  9993", "line2": "2 39019  98.1795  65.2158 0001165  84.5848 275.5485 14.58558280694539"}}, "geometry": {"type": "Point", "coordinates": [149.54355350058805, -81.77080720207962]}}, {"type": "Feature", "properties": {"norad_id": 39030, "name": "GOKTURK 2", "group": "resource", "lat": 37.81890651769663, "lon": 20.348595915917358, "alt_km": 640.7704350770564, "timestamp": "2025-12-18T23:35:48.704104+00:00", "meta": {"OBJECT_NAME": "GOKTURK 2", "OBJECT_ID": "2012-073A", "EPOCH": "2025-12-18T14:49:04.624032", "MEAN_MOTION": 14.75300399, "ECCENTRICITY": 0.00011791, "INCLINATION": 97.689, "RA_OF_ASC_NODE": 193.9815, "ARG_OF_PERICENTER": 108.3857, "MEAN_ANOMALY": 251.7481, "EPHEMERIS_TYPE": 0, "CLASSIFICATION_TYPE": "U", "NORAD_CAT_ID": 39030, "ELEMENT_SET_NO": 999, "REV_AT_EPOCH": 69788, "BSTAR": 0.00012221961, "MEAN_MOTION_DOT": 7.81e-06, "MEAN_MOTION_DDOT": 0}, "tle": {"line1": "1 39030U 12073A   25352.61741463  .00000781  00000+0  12222-3 0  9994", "line2": "2 39030  97.6890 193.9815 0001179 108.3857 251.7481 14.75300399697889"}}, "geometry": {"type": "Point", "coordinates": [20.348595915917358, 37.81890651769663]}}, {"type": "Feature", "properties": {"norad_id": 39084, "name": "LANDSAT 8", "group": "resource", "lat": 47.81964714559837, "lon": 51.79998122694704, "alt_km": 697.668080303316, "timestamp": "2025-12-18T23:35:48.704115+00:00", "meta": {"OBJECT_NAME": "LANDSAT 8", "OBJECT_ID": "2013-008A", "EPOCH": "2025-12-18T15:08:05.273376", "MEAN_MOTION": 14.5710851, "ECCENTRICITY": 0.00010859, "INCLINATION": 98.2066, "RA_OF_ASC_NODE": 60.617, "ARG_OF_PERICENTER": 89.597, "MEAN_ANOMALY": 270.5353, "EPHEMERIS_TYPE": 0, "CLASSIFICATION_TYPE": "U", "NORAD_CAT_ID": 39084, "ELEMENT_SET_NO": 999, "REV_AT_EPOCH": 67160, "BSTAR": 8.0809998e-05, "MEAN_MOTION_DOT": 3.19e-06, "MEAN_MOTION_DDOT": 0}, "tle": {"line1": "1 39084U 13008A   25352.63061659  .00000319  00000+0  80810-4 0  9992", "line2": "2 39084  98.2066  60.6170 0001085  89.5970 270.5353 14.57108510671606"}}, "geometry": {"type": "Point", "coordinates": [51.79998122694704, 47.81964714559837]}}, {"type": "Feature", "properties": {"norad_id": 39086, "name": "SARAL", "group": "resource", "lat": -27.520607699160884, "lon": -7.663846894829885, "alt_km": 789.0219913821065, "timestamp": "2025-12-18T23:35:48.704125+00:00", "meta": {"OBJECT_NAME": "SARAL", "OBJECT_ID": "2013-009A", "EPOCH": "2025-12-18T14:15:00.927936", "MEAN_MOTION": 14.32759034, "ECCENTRICITY": 0.00029422, "INCLINATION": 98.5502, "RA_OF_ASC_NODE": 176.4477, "ARG_OF_PERICENTER": 97.7424, "MEAN_ANOMALY": 262.4094, "EPHEMERIS_TYPE": 0, "CLASSIFICATION_TYPE": "U", "NORAD_CAT_ID": 39086, "ELEMENT_SET_NO": 999, "REV_AT_EPOCH": 66974, "BSTAR": 5.2670291e-05, "MEAN_MOTION_DOT": 1e-06, "MEAN_MOTION_DDOT": 0}, "tle": {"line1": "1 39086U 13009A   25352.59376074  .00000100  00000+0  52670-4 0  9991", "line2": "2 39086  98.5502 176.4477 0002942  97.7424 262.4094 14.32759034669740"}}, "geometry": {"type": "Point", "coordinates": [-7.663846894829885, -27.520607699160884]}}, {"type": "Feature", "properties": {"norad_id": 39150, "name": "GAOFEN-1", "group": "resource", "lat": -66.66396798449574, "lon": -135.32435563831544, "alt_km": 654.7696535698342, "timestamp": "2025-12-18T23:35:48.704136+00:00", "meta": {"OBJECT_NAME": "GAOFEN-1", "OBJECT_ID": "2013-018A", "EPOCH": "2025-12-18T14:20:48.687936", "MEAN_MOTION": 14.76544474, "ECCENTRICITY": 0.0018491, "INCLINATION": 97.9326, "RA_OF_ASC_NODE": 63.1539, "ARG_OF_PERICENTER": 125.0217, "MEAN_ANOMALY": 235.2731, "EPHEMERIS_TYPE": 0, "CLASSIFICATION_TYPE": "U", "NORAD_CAT_ID": 39150, "ELEMENT_SET_NO": 999, "REV_AT_EPOCH": 68159, "BSTAR": 9.088469e-05, "MEAN_MOTION_DOT": 5.84e-06, "MEAN_MOTION_DDOT": 0}, "tle": {"line1": "1 39150U 13018A   25352.59778574  .00000584  00000+0  90885-4 0  9990", "line2": "2 39150  97.9326  63.1539 0018491 125.0217 235.2731 14.76544474681592"}}, "geometry": {"type": "Point", "coordinates": [-135.32435563831544, -66.66396798449574]}}, {"type": "Feature", "properties": {"norad_id": 39160, "name": "VNREDSAT 1", "group": "resource", "lat": 48.904494143650666, "lon": 38.83517624136104, "alt_km": 672.1443360352087, "timestamp": "2025-12-18T23:35:48.704146+00:00", "meta": {"OBJECT_NAME": "VNREDSAT 1", "OBJECT_ID": "2013-021B", "EPOCH": "2025-12-18T15:10:30.302688", "MEAN_MOTION": 14.64931924, "ECCENTRICITY": 0.00011886, "INCLINATION": 97.9373, "RA_OF_ASC_NODE": 47.701, "ARG_OF_PERICENTER": 78.7229, "MEAN_ANOMALY": 281.4108, "EPHEMERIS_TYPE": 0, "CLASSIFICATION_TYPE": "U", "NORAD_CAT_ID": 39160, "ELEMENT_SET_NO": 999, "REV_AT_EPOCH": 67385, "BSTAR": 0.00012843188, "MEAN_MOTION_DOT": 6.41e-06, "MEAN_MOTION_DDOT": 0}, "tle": {"line1": "1 39160U 13021B   25352.63229517  .00000641  00000+0  12843-3 0  9999", "line2": "2 39160  97.9373  47.7010 0001188  78.7229 281.4108 14.64931924673857"}}, "geometry": {"type": "Point", "coordinates": [38.83517624136104, 48.904494143650666]}}, {"type": "Feature", "properties": {"norad_id": 39227, "name": "ARIRANG-5 (KOMPSAT-5)", "group": "resource", "lat": -62.63510747698542, "lon": -167.82268352887502, "alt_km": 560.6578956185931, "timestamp": "2025-12-18T23:35:48.704157+00:00", "meta": {"OBJECT_NAME": "ARIRANG-5 (KOMPSAT-5)", "OBJECT_ID": "2013-042A", "EPOCH": "2025-12-18T14:18:07.790400", "MEAN_MOTION": 15.04531933, "ECCENTRICITY": 0.00034235, "INCLINATION": 97.6149, "RA_OF_ASC_NODE": 176.8155, "ARG_OF_PERICENTER": 40.2221, "MEAN_ANOMALY": 319.9258, "EPHEMERIS_TYPE": 0, "CLASSIFICATION_TYPE": "U", "NORAD_CAT_ID": 39227, "ELEMENT_SET_NO": 999, "REV_AT_EPOCH": 67670, "BSTAR": 0.00017245264, "MEAN_MOTION_DOT": 2.356e-05, "MEAN_MOTION_DDOT": 0}, "tle": {"line1": "1 39227U 13042A   25352.59592350  .00002356  00000+0  17245-3 0  9995", "line2": "2 39227  97.6149 176.8155 0003423  40.2221 319.9258 15.04531933676704"}}, "geometry": {"type": "Point", "coordinates": [-167.82268352887502, -62.63510747698542]}}, {"type": "Feature", "properties": {"norad_id": 39418, "name": "SKYSAT-A", "group": "resource", "lat": 69.89308788880567, "lon": -116.17277627984188, "alt_km": 528.2511747635135, "timestamp": "2025-12-18T23:35:48.704167+00:00", "meta": {"OBJECT_NAME": "SKYSAT-A", "OBJECT_ID": "2013-066C", "EPOCH": "2025-12-18T15:10:21.468288", "MEAN_MOTION": 15.11644793, "ECCENTRICITY": 0.00211351, "INCLINATION": 97.4102, "RA_OF_ASC_NODE": 42.6619, "ARG_OF_PERICENTER": 215.2249, "MEAN_ANOMALY": 144.7586, "EPHEMERIS_TYPE": 0, "CLASSIFICATION_TYPE": "U", "NORAD_CAT_ID": 39418, "ELEMENT_SET_NO": 999, "REV_AT_EPOCH": 66119, "BSTAR": 0.00018990933, "MEAN_MOTION_DOT": 3.181e-05, "MEAN_MOTION_DDOT": 0}, "tle": {"line1": "1 39418U 13066C   25352.63219292  .00003181  00000+0  18991-3 0  9995", "line2": "2 39418  97.4102  42.6619 0021135 215.2249 144.7586 15.11644793661194"}}, "geometry": {"type": "Point", "coordinates": [-116.17277627984188, 69.89308788880567]}}, {"type": "Feature", "properties": {"norad_id": 39419, "name": "DUBAISAT-2", "group": "resource", "lat": 1.5732402314425187, "lon": 163.40396569004076, "alt_km": 547.3787334948465, "timestamp": "2025-12-18T23:35:48.704177+00:00", "meta": {"OBJECT_NAME": "DUBAISAT-2", "OBJECT_ID": "2013-066D", "EPOCH": "2025-12-18T14:50:51.442080", "MEAN_MOTION": 15.08410629, "ECCENTRICITY": 0.00100226, "INCLINATION": 97.444, "RA_OF_ASC_NODE": 342.8449, "ARG_OF_PERICENTER": 299.5465, "MEAN_ANOMALY": 60.4765, "EPHEMERIS_TYPE": 0, "CLASSIFICATION_TYPE": "U", "NORAD_CAT_ID": 39419, "ELEMENT_SET_NO": 999, "REV_AT_EPOCH": 65915, "BSTAR": 0.00018342689, "MEAN_MOTION_DOT": 2.795e-05, "MEAN_MOTION_DDOT": 0}, "tle": {"line1": "1 39419U 13066D   25352.61865095  .00002795  00000+0  18343-3 0  9993", "line2": "2 39419  97.4440 342.8449 0010022 299.5465  60.4765 15.08410629659155"}}, "geometry": {"type": "Point", "coordinates": [163.40396569004076, 1.5732402314425187]}}, {"type": "Feature", "properties": {"norad_id": 39574, "name": "GPM-CORE", "group": "resource", "lat": 55.08454592093147, "lon": -126.20651576011002, "alt_km": 432.9029261782189, "timestamp": "2025-12-18T23:35:48.704188+00:00", "meta": {"OBJECT_NAME": "GPM-CORE", "OBJECT_ID": "2014-009C", "EPOCH": "2025-12-18T15:32:49.436160", "MEAN_MOTION": 15.44552792, "ECCENTRICITY": 0.00094855, "INCLINATION": 64.9721, "RA_OF_ASC_NODE": 192.8971, "ARG_OF_PERICENTER": 247.3609, "MEAN_ANOMALY": 112.6529, "EPHEMERIS_TYPE": 0, "CLASSIFICATION_TYPE": "U", "NORAD_CAT_ID": 39574, "ELEMENT_SET_NO": 999, "REV_AT_EPOCH": 66992, "BSTAR": 0.00013952687, "MEAN_MOTION_DOT": 6.272e-05, "MEAN_MOTION_DDOT": 0}, "tle": {"line1": "1 39574U 14009C   25352.64779440  .00006272  00000+0  13953-3 0  9990", "line2": "2 39574  64.9721 192.8971 0009485 247.3609 112.6529 15.44552792669925"}}, "geometry": {"type": "Point", "coordinates": [-126.20651576011002, 55.08454592093147]}}]}